[{"OBJECT_NAME":"STARLINK-3535","OBJECT_ID":"2022-016J","EPOCH":"2026-03-09T23:29:22.291872","MEAN_MOTION":15.08838284,"ECCENTRICITY":0.0001296,"INCLINATION":53.2191,"RA_OF_ASC_NODE":327.8213,"ARG_OF_PERICENTER":88.5981,"MEAN_ANOMALY":271.516,"EPHEMERIS_TYPE":0,"CLASSIFICATION_TYPE":"U","NORAD_CAT_ID":51722,"ELEMENT_SET_NO":999,"REV_AT_EPOCH":22346,"BSTAR":-4.0292498e-5,"MEAN_MOTION_DOT":-9.29e-6,"MEAN_MOTION_DDOT":0},{"OBJECT_NAME":"NOAA 17 DEB","OBJECT_ID":"2002-032W","EPOCH":"2026-03-09T23:34:50.358720","MEAN_MOTION":15.06684432,"ECCENTRICITY":0.0012716,"INCLINATION":98.7039,"RA_OF_ASC_NODE":76.0065,"ARG_OF_PERICENTER":104.6864,"MEAN_ANOMALY":255.577,"EPHEMERIS_TYPE":0,"CLASSIFICATION_TYPE":"U","NORAD_CAT_ID":48181,"ELEMENT_SET_NO":999,"REV_AT_EPOCH":26088,"BSTAR":0.0078736038,"MEAN_MOTION_DOT":0.00118919,"MEAN_MOTION_DDOT":0}]
